OBJECT_NAME,OBJECT_ID,EPOCH,MEAN_MOTION,ECCENTRICITY,INCLINATION,RA_OF_ASC_NODE,ARG_OF_PERICENTER,MEAN_ANOMALY,EPHEMERIS_TYPE,CLASSIFICATION_TYPE,NORAD_CAT_ID,ELEMENT_SET_NO,REV_AT_EPOCH,BSTAR,MEAN_MOTION_DOT,MEAN_MOTION_DDOT
STARLINK-5574,2023-013AH,2025-12-06T13:52:59.862432,15.02536235,.00012682,43.0061,73.2133,264.9479,95.1219,0,U,55362,999,15785,.84695046E-4,.941E-5,0
STARLINK-5627,2023-013AK,2025-12-06T08:30:19.886112,15.02515436,.00010758,43.0044,87.1144,271.3287,88.7432,0,U,55364,999,15767,-.28007968E-3,-.3983E-4,0
STARLINK-5639,2023-013AL,2025-12-06T15:29:35.463840,15.02528097,.00012286,43.0036,98.8543,279.8530,80.2174,0,U,55365,999,15756,.12910896E-3,.154E-4,0
STARLINK-5654,2023-013AM,2025-12-06T13:57:48.225024,15.02412189,.00006492,43.0038,73.2339,304.9031,55.1750,0,U,55366,999,15785,.18728988E-2,.25104E-3,0
STARLINK-5635,2023-013AN,2025-12-06T12:46:02.360928,15.02522590,.00011441,43.0011,73.7140,244.2884,115.7841,0,U,55367,999,15784,-.16321683E-3,-.2407E-4,0
STARLINK-5625,2023-013AP,2025-12-06T13:38:37.252608,15.02527599,.00012605,43.0040,73.1374,267.7367,92.3331,0,U,55368,999,15785,.90552899E-4,.102E-4,0
STARLINK-5644,2023-013AQ,2025-12-06T15:27:58.953312,15.02535107,.00013408,43.0033,98.8459,270.3500,89.7189,0,U,55369,999,15756,.12811285E-3,.1527E-4,0
STARLINK-5027,2023-013AR,2025-12-06T15:34:22.815552,15.02547261,.00012911,43.0022,98.8809,270.8769,89.1925,0,U,55370,999,15756,.63964483E-4,.661E-5,0
STARLINK-5590,2023-013AS,2025-12-06T15:13:36.056640,15.02534566,.00013934,43.0042,98.7657,274.3668,85.7015,0,U,55371,999,15848,.51283499E-4,.489E-5,0
STARLINK-5568,2023-013AT,2025-12-06T15:23:11.770080,15.02542215,.00012932,43.0034,98.8214,270.2487,89.8207,0,U,55372,999,15756,.4668259E-5,-.141E-5,0
STARLINK-5581,2023-013AU,2025-12-06T09:30:38.435616,15.02538255,.00013507,43.0036,100.4166,266.2174,93.8514,0,U,55373,999,15752,.33077965E-4,.243E-5,0
STARLINK-5578,2023-013AV,2025-12-06T15:18:25.278912,15.02514308,.00017884,43.0066,98.7979,270.1259,89.9379,0,U,55374,999,15756,-.12388036E-3,-.1876E-4,0
STARLINK-5588,2023-013AW,2025-12-06T15:04:00.507360,15.02535823,.00013767,43.0034,98.7212,270.6792,89.3893,0,U,55375,999,15756,.61194112E-4,.623E-5,0
STARLINK-5586,2023-013AX,2025-12-06T14:26:31.867872,15.02551165,.00015549,43.0039,73.3792,271.5443,88.5221,0,U,55376,999,15785,.12014128E-3,.142E-4,0
STARLINK-5567,2023-013AY,2025-12-06T14:44:49.591104,15.02536652,.00014333,43.0037,98.6209,271.4889,88.5789,0,U,55377,999,15756,.40133845E-4,.339E-5,0
STARLINK-5572,2023-013AZ,2025-12-06T15:08:47.826240,15.02557812,.00014938,43.0033,98.7467,263.2577,96.8096,0,U,55378,999,15756,-.28726904E-3,-.4084E-4,0
STARLINK-5569,2023-013BA,2025-12-06T14:54:25.180128,15.02534271,.00014583,43.0034,98.6698,272.1466,87.9209,0,U,55379,999,15756,.65392699E-4,.68E-5,0
STARLINK-5571,2023-013BB,2025-12-06T13:33:49.201920,15.02528347,.00015407,43.0043,73.1130,267.3265,92.7401,0,U,55380,999,15785,-.70573578E-4,-.1157E-4,0
STARLINK-5575,2023-013BC,2025-12-06T14:49:37.602912,15.02530688,.00014241,43.0040,98.6434,274.5722,85.4958,0,U,55381,999,15756,.87518863E-4,.979E-5,0
STARLINK-5576,2023-013BD,2025-12-06T10:12:01.833408,15.02537523,.00013497,43.0035,99.7799,262.8007,97.2682,0,U,55382,999,15753,-.31797652E-4,-.633E-5,0
STARLINK-5531,2023-013BE,2025-12-06T15:04:45.295392,15.02532880,.00013355,43.0038,72.7220,268.2036,91.8654,0,U,55383,999,15786,.1490112E-5,-.184E-5,0
STARLINK-5537,2023-013BF,2025-12-06T14:56:01.167072,15.02537699,.00014622,43.0038,98.6810,272.2853,87.7822,0,U,55384,999,15756,.83732998E-4,.928E-5,0
STARLINK-5556,2023-013BG,2025-12-06T14:35:14.485920,15.02535461,.00014858,43.0039,98.5698,270.2570,89.8103,0,U,55385,999,15756,.8348707E-5,-.91E-6,0
STARLINK-5555,2023-013BH,2025-12-06T14:40:01.873920,15.02549838,.00011263,43.0033,98.5950,257.1904,102.8813,0,U,55386,999,15756,-.16574893E-3,-.2443E-4,0
STARLINK-5085,2023-014B,2025-12-06T13:47:28.669632,14.98336834,.00025888,69.9993,279.1202,269.3417,90.7446,0,U,55392,999,15860,.14683214E-4,.82E-6,0
STARLINK-4786,2023-014C,2025-12-05T23:52:39.402336,14.98351818,.00031155,70.0020,300.5917,272.2088,87.8715,0,U,55393,999,15802,.45019923E-3,.5286E-4,0
STARLINK-5274,2023-014E,2025-12-06T14:05:49.810848,14.98331588,.00030611,69.9996,299.0261,270.6804,89.4005,0,U,55395,999,15811,.34838759E-4,.323E-5,0
STARLINK-5283,2023-014F,2025-12-06T14:11:50.801280,14.98330322,.00026738,70.0001,299.0513,272.1665,87.9188,0,U,55396,999,15811,.77301599E-4,.829E-5,0
STARLINK-5224,2023-014G,2025-12-06T06:52:55.404768,14.98327039,.00025916,69.9991,280.1080,262.7888,97.2976,0,U,55397,999,15855,.98634913E-4,.1084E-4,0
STARLINK-5275,2023-014H,2025-12-06T14:35:53.176704,14.98335025,.00027453,70.0008,299.1072,269.4140,90.6704,0,U,55398,999,15811,.13425404E-3,.1509E-4,0
