[{"norad_id":"55362","company":"STARLINK","tle_line2":"2 55362  43.0061  73.2133 0001268 264.9479  95.1219 15.02536235157859","launch_date":"2023-01-26","type":"LEO","tle_line1":"1 55362U 23013AH  25340.57847063  .00000941  00000+0  84695-4 0  9993","satellite_name":"STARLINK-5574"},{"norad_id":"55364","company":"STARLINK","tle_line2":"2 55364  43.0044  87.1144 0001075 271.3287  88.7432 15.02515436157678","launch_date":"2023-01-26","type":"LEO","tle_line1":"1 55364U 23013AK  25340.35439683 -.00003983  00000+0 -28008-3 0  9992","satellite_name":"STARLINK-5627"},{"norad_id":"55365","company":"STARLINK","tle_line2":"2 55365  43.0036  98.8543 0001228 279.8530  80.2174 15.02528097157561","launch_date":"2023-01-26","type":"LEO","tle_line1":"1 55365U 23013AL  25340.64554935  .00001540  00000+0  12911-3 0  9994","satellite_name":"STARLINK-5639"},{"norad_id":"55366","company":"STARLINK","tle_line2":"2 55366  43.0038  73.2339 0000649 304.9031  55.1750 15.02412189157853","launch_date":"2023-01-26","type":"LEO","tle_line1":"1 55366U 23013AM  25340.58180816  .00025104  00000+0  18729-2 0  9995","satellite_name":"STARLINK-5654"},{"norad_id":"55367","company":"STARLINK","tle_line2":"2 55367  43.0011  73.7140 0001144 244.2884 115.7841 15.02522590157844","launch_date":"2023-01-26","type":"LEO","tle_line1":"1 55367U 23013AN  25340.53197177 -.00002407  00000+0 -16322-3 0  9990","satellite_name":"STARLINK-5635"},{"norad_id":"55368","company":"STARLINK","tle_line2":"2 55368  43.0040  73.1374 0001260 267.7367  92.3331 15.02527599157854","launch_date":"2023-01-26","type":"LEO","tle_line1":"1 55368U 23013AP  25340.56848672  .00001020  00000+0  90553-4 0  9994","satellite_name":"STARLINK-5625"},{"norad_id":"55369","company":"STARLINK","tle_line2":"2 55369  43.0033  98.8459 0001340 270.3500  89.7189 15.02535107157566","launch_date":"2023-01-26","type":"LEO","tle_line1":"1 55369U 23013AQ  25340.64443233  .00001527  00000+0  12811-3 0  9990","satellite_name":"STARLINK-5644"},{"norad_id":"55370","company":"STARLINK","tle_line2":"2 55370  43.0022  98.8809 0001291 270.8769  89.1925 15.02547261157568","launch_date":"2023-01-26","type":"LEO","tle_line1":"1 55370U 23013AR  25340.64887518  .00000661  00000+0  63964-4 0  9994","satellite_name":"STARLINK-5027"},{"norad_id":"55371","company":"STARLINK","tle_line2":"2 55371  43.0042  98.7657 0001393 274.3668  85.7015 15.02534566158489","launch_date":"2023-01-26","type":"LEO","tle_line1":"1 55371U 23013AS  25340.63444510  .00000489  00000+0  51283-4 0  9994","satellite_name":"STARLINK-5590"},{"norad_id":"55372","company":"STARLINK","tle_line2":"2 55372  43.0034  98.8214 0001293 270.2487  89.8207 15.02542215157560","launch_date":"2023-01-26","type":"LEO","tle_line1":"1 55372U 23013AT  25340.64110845 -.00000141  00000+0  46683-5 0  9992","satellite_name":"STARLINK-5568"},{"norad_id":"55373","company":"STARLINK","tle_line2":"2 55373  43.0036 100.4166 0001350 266.2174  93.8514 15.02538255157522","launch_date":"2023-01-26","type":"LEO","tle_line1":"1 55373U 23013AU  25340.39627819  .00000243  00000+0  33078-4 0  9994","satellite_name":"STARLINK-5581"},{"norad_id":"55374","company":"STARLINK","tle_line2":"2 55374  43.0066  98.7979 0001788 270.1259  89.9379 15.02514308157562","launch_date":"2023-01-26","type":"LEO","tle_line1":"1 55374U 23013AV  25340.63779258 -.00001876  00000+0 -12388-3 0  9992","satellite_name":"STARLINK-5578"},{"norad_id":"55375","company":"STARLINK","tle_line2":"2 55375  43.0034  98.7212 0001376 270.6792  89.3893 15.02535823157568","launch_date":"2023-01-26","type":"LEO","tle_line1":"1 55375U 23013AW  25340.62778365  .00000623  00000+0  61194-4 0  9997","satellite_name":"STARLINK-5588"},{"norad_id":"55376","company":"STARLINK","tle_line2":"2 55376  43.0039  73.3792 0001554 271.5443  88.5221 15.02551165157852","launch_date":"2023-01-26","type":"LEO","tle_line1":"1 55376U 23013AX  25340.60175773  .00001420  00000+0  12014-3 0  9992","satellite_name":"STARLINK-5586"},{"norad_id":"55377","company":"STARLINK","tle_line2":"2 55377  43.0037  98.6209 0001433 271.4889  88.5789 15.02536652157564","launch_date":"2023-01-26","type":"LEO","tle_line1":"1 55377U 23013AY  25340.61446286  .00000339  00000+0  40134-4 0  9997","satellite_name":"STARLINK-5567"},{"norad_id":"55378","company":"STARLINK","tle_line2":"2 55378  43.0033  98.7467 0001493 263.2577  96.8096 15.02557812157561","launch_date":"2023-01-26","type":"LEO","tle_line1":"1 55378U 23013AZ  25340.63110910 -.00004084  00000+0 -28727-3 0  9998","satellite_name":"STARLINK-5572"},{"norad_id":"55379","company":"STARLINK","tle_line2":"2 55379  43.0034  98.6698 0001458 272.1466  87.9209 15.02534271157566","launch_date":"2023-01-26","type":"LEO","tle_line1":"1 55379U 23013BA  25340.62112477  .00000680  00000+0  65393-4 0  9995","satellite_name":"STARLINK-5569"},{"norad_id":"55380","company":"STARLINK","tle_line2":"2 55380  43.0043  73.1130 0001540 267.3265  92.7401 15.02528347157859","launch_date":"2023-01-26","type":"LEO","tle_line1":"1 55380U 23013BB  25340.56515280 -.00001157  00000+0 -70574-4 0  9998","satellite_name":"STARLINK-5571"},{"norad_id":"55381","company":"STARLINK","tle_line2":"2 55381  43.0040  98.6434 0001424 274.5722  85.4958 15.02530688157560","launch_date":"2023-01-26","type":"LEO","tle_line1":"1 55381U 23013BC  25340.61779633  .00000979  00000+0  87519-4 0  9995","satellite_name":"STARLINK-5575"},{"norad_id":"55382","company":"STARLINK","tle_line2":"2 55382  43.0035  99.7799 0001349 262.8007  97.2682 15.02537523157530","launch_date":"2023-01-26","type":"LEO","tle_line1":"1 55382U 23013BD  25340.42502122 -.00000633  00000+0 -31798-4 0  9999","satellite_name":"STARLINK-5576"},{"norad_id":"55383","company":"STARLINK","tle_line2":"2 55383  43.0038  72.7220 0001335 268.2036  91.8654 15.02532880157867","launch_date":"2023-01-26","type":"LEO","tle_line1":"1 55383U 23013BE  25340.62830203 -.00000184  00000+0  14901-5 0  9994","satellite_name":"STARLINK-5531"},{"norad_id":"55384","company":"STARLINK","tle_line2":"2 55384  43.0038  98.6810 0001462 272.2853  87.7822 15.02537699157564","launch_date":"2023-01-26","type":"LEO","tle_line1":"1 55384U 23013BF  25340.62223573  .00000928  00000+0  83733-4 0  9994","satellite_name":"STARLINK-5537"},{"norad_id":"55385","company":"STARLINK","tle_line2":"2 55385  43.0039  98.5698 0001485 270.2570  89.8103 15.02535461157568","launch_date":"2023-01-26","type":"LEO","tle_line1":"1 55385U 23013BG  25340.60780655 -.00000091  00000+0  83487-5 0  9991","satellite_name":"STARLINK-5556"},{"norad_id":"55386","company":"STARLINK","tle_line2":"2 55386  43.0033  98.5950 0001126 257.1904 102.8813 15.02549838157568","launch_date":"2023-01-26","type":"LEO","tle_line1":"1 55386U 23013BH  25340.61113280 -.00002443  00000+0 -16575-3 0  9993","satellite_name":"STARLINK-5555"},{"norad_id":"55392","company":"STARLINK","tle_line2":"2 55392  69.9993 279.1202 0002588 269.3417  90.7446 14.98336834158608","launch_date":"2023-01-31","type":"LEO","tle_line1":"1 55392U 23014B   25340.57463738  .00000082  00000+0  14683-4 0  9996","satellite_name":"STARLINK-5085"},{"norad_id":"55393","company":"STARLINK","tle_line2":"2 55393  70.0020 300.5917 0003115 272.2088  87.8715 14.98351818158020","launch_date":"2023-01-31","type":"LEO","tle_line1":"1 55393U 23014C   25339.99490049  .00005286  00000+0  45020-3 0  9995","satellite_name":"STARLINK-4786"},{"norad_id":"55395","company":"STARLINK","tle_line2":"2 55395  69.9996 299.0261 0003061 270.6804  89.4005 14.98331588158115","launch_date":"2023-01-31","type":"LEO","tle_line1":"1 55395U 23014E   25340.58738207  .00000323  00000+0  34839-4 0  9999","satellite_name":"STARLINK-5274"},{"norad_id":"55396","company":"STARLINK","tle_line2":"2 55396  70.0001 299.0513 0002673 272.1665  87.9188 14.98330322158116","launch_date":"2023-01-31","type":"LEO","tle_line1":"1 55396U 23014F   25340.59156020  .00000829  00000+0  77302-4 0  9991","satellite_name":"STARLINK-5283"},{"norad_id":"55397","company":"STARLINK","tle_line2":"2 55397  69.9991 280.1080 0002591 262.7888  97.2976 14.98327039158551","launch_date":"2023-01-31","type":"LEO","tle_line1":"1 55397U 23014G   25340.28675237  .00001084  00000+0  98635-4 0  9990","satellite_name":"STARLINK-5224"},{"norad_id":"55398","company":"STARLINK","tle_line2":"2 55398  70.0008 299.1072 0002745 269.4140  90.6704 14.98335025158113","launch_date":"2023-01-31","type":"LEO","tle_line1":"1 55398U 23014H   25340.60825436  .00001509  00000+0  13425-3 0  9990","satellite_name":"STARLINK-5275"}]